{
  "norad_id": 52649,
  "name": "STARLINK-3868",
  "history": [
    {
      "epoch": "2026-03-28T15:20:17.214432",
      "apogee_km": 540.7257579145053,
      "perigee_km": 538.7479377814052,
      "latitude_deg": -28.26540664679524,
      "longitude_deg": -133.74753952003084,
      "semi_major_axis_km": 6917.8738478479545,
      "eccentricity": 0.00014295,
      "inclination_deg": 53.2157,
      "raan_deg": 173.9053,
      "arg_perigee_deg": 93.2157,
      "mean_anomaly_deg": 266.8999,
      "mean_motion_rev_day": 15.0884214
    }
  ]
}