{"fetched_at":"2026-03-30T06:02:59Z","count":15439,"tles":[{"name":"STARLINK-3868","line1":"1 52649U 22052BD  26087.63908813  .00000200  00000+0  30687-4 0  9997","line2":"2 52649  53.2157 173.9053 0001429  93.2157 266.8999 15.08842140214001","category":"Starlink"}]}